TRANSPORTER-16 OBJECT BX
1 68485U 26067BX  26105.86586388  .00003340  00000+0  33522-3 0  9995
2 68485  97.7542  65.1050 0002424 119.0658 241.0803 14.91967357  2435
