{
  "norad_id": 68485,
  "name": "TRANSPORTER-16 OBJECT BX",
  "history": [
    {
      "epoch": "2026-04-15T20:46:50.639232Z",
      "apogee_km": 593.4912446586641,
      "perigee_km": 590.1122183616271,
      "latitude_deg": -8.311314160766256e-05,
      "longitude_deg": -90.62777532084274,
      "height_km": 595.661367107544,
      "semi_major_axis_km": 6969.938731510145,
      "eccentricity": 0.0002424,
      "inclination_deg": 97.7542,
      "raan_deg": 65.105,
      "arg_perigee_deg": 119.0658,
      "mean_anomaly_deg": 241.0803,
      "mean_motion_rev_day": 14.91967357
    }
  ]
}